[{"OBJECT_NAME":"ONEWEB-0519","OBJECT_ID":"2022-138AA","EPOCH":"2026-03-09T18:36:08.004096","MEAN_MOTION":13.19725885,"ECCENTRICITY":0.00014682,"INCLINATION":87.9235,"RA_OF_ASC_NODE":324.7649,"ARG_OF_PERICENTER":79.5494,"MEAN_ANOMALY":280.5804,"EPHEMERIS_TYPE":0,"CLASSIFICATION_TYPE":"U","NORAD_CAT_ID":54137,"ELEMENT_SET_NO":999,"REV_AT_EPOCH":16372,"BSTAR":-0.00024916148,"MEAN_MOTION_DOT":-8.7e-7,"MEAN_MOTION_DDOT":0},{"OBJECT_NAME":"DELTA 1 DEB","OBJECT_ID":"1975-052CR","EPOCH":"2026-03-09T17:15:10.171008","MEAN_MOTION":13.14305797,"ECCENTRICITY":0.01520038,"INCLINATION":99.7818,"RA_OF_ASC_NODE":145.6609,"ARG_OF_PERICENTER":343.4366,"MEAN_ANOMALY":144.2043,"EPHEMERIS_TYPE":0,"CLASSIFICATION_TYPE":"U","NORAD_CAT_ID":21371,"ELEMENT_SET_NO":999,"REV_AT_EPOCH":66891,"BSTAR":0.00020001683,"MEAN_MOTION_DOT":3.8e-7,"MEAN_MOTION_DDOT":0}]
